ERS-1                   
1 21574U 91050A   26086.00550483  .00000324  00000+0  11806-3 0  9998
2 21574  98.7868 104.6746 0032593 149.2731 211.0373 14.39462135818220
ARIANE 40 R/B           
1 21610U 91050F   26086.15395088  .00000304  00000+0  10338-3 0  9990
2 21610  98.1976 137.7320 0003626  41.8206 318.3261 14.42906003821513
INTERCOSMOS 25          
1 21819U 91086A   26086.07525676  .00001552  00000+0  29723-3 0  9993
2 21819  82.6018 299.4982 1486591  79.4738 296.9843 12.12057217498799
SL-8 R/B                
1 21876U 92008B   26086.19641034  .00000032  00000+0  16944-4 0  9995
2 21876  82.9230 254.7513 0035975  86.1045  86.4963 13.75969576711823
SL-8 R/B                
1 21938U 92020B   26086.22287713  .00000034  00000+0  19978-4 0  9994
2 21938  82.9306 140.7439 0027704 247.5148 176.1213 13.75550533703549
USA 81                  
1 21949U 92023A   26086.19305877  .00000172  00000+0  56307-4 0  9997
2 21949  85.0050 121.3403 0001845  68.0623 292.0765 14.32373481 97296
COSMOS 2219             
1 22219U 92076A   26086.13476517 -.00000234  00000+0 -98088-4 0  9993
2 22219  71.0627 341.6040 0017994 181.6081 178.4986 14.14091411720844
SL-16 R/B               
1 22220U 92076B   26086.19951576 -.00000036  00000+0  57090-5 0  9992
2 22220  71.0000 151.4927 0010665  63.5702 328.1233 14.16864025724314
COSMOS 2221             
1 22236U 92080A   26085.95832551  .00002465  00000+0  21562-3 0  9998
2 22236  82.5007 262.5342 0015396 131.2419 229.0132 14.96269736783378
SL-16 R/B               
1 22285U 92093B   26086.12434828  .00000260  00000+0  15750-3 0  9994
2 22285  71.0232 327.6686 0006444 276.6837  83.3552 14.15453631715621
COSMOS 2228             
1 22286U 92094A   26086.16363940  .00002513  00000+0  21412-3 0  9991
2 22286  82.5183 220.5792 0016765 240.8169 119.1377 14.97276364778674
SL-16 R/B               
1 22566U 93016B   26085.67175405 -.00000120  00000+0 -37174-4 0  9996
2 22566  71.0078 179.5163 0012341 292.2002  67.7812 14.15305436704572
